[
    {
        "Altitude(m)": 610405.287755911,
        "Argument of Periapsis(deg)": 0.0,
        "Eccentricity": 0.0,
        "Inclination(deg)": 60.0,
        "Latitude(deg)": 52.11117425736914,
        "Longitude(deg)": -32.52267780638261,
        "Mean Anomaly(deg)": -245.4545,
        "RAAN(deg)": 295.00000000000006,
        "Satellite Name": "Test1 1305",
        "Satellite Number": 1305,
        "Semi-Major Axis(m)": 6980739.136638005,
        "Time(s)": 0
    },
    {
        "Altitude(m)": 610321.8609923901,
        "Argument of Periapsis(deg)": 0.00010418945913296404,
        "Eccentricity": 0.0,
        "Inclination(deg)": 60.0,
        "Latitude(deg)": 51.74589023939491,
        "Longitude(deg)": -31.753784370595287,
        "Mean Anomaly(deg)": -244.83439385453815,
        "RAAN(deg)": 294.99957995086027,
        "Satellite Name": "Test1 1305",
        "Satellite Number": 1305,
        "Semi-Major Axis(m)": 6980739.136638005,
        "Time(s)": 10
    }
]